NORAD_CAT_ID,OBJECT_NAME,OBJECT_TYPE,EPOCH,MEAN_MOTION,ECCENTRICITY,INCLINATION,RA_OF_ASC_NODE,ARG_OF_PERICENTER,MEAN_ANOMALY,BSTAR,MEAN_MOTION_DOT,MEAN_MOTION_DDOT,TLE_LINE0,TLE_LINE1,TLE_LINE2,SEMIMAJOR_AXIS,PERIOD,APOGEE,PERIGEE,DECAYED
53273.0,STARLINK-4051,PAYLOAD,2023-08-15 09:34:17,15.08842243,8.98e-05,53.2168,71.7839,76.7385,283.3708,0.00017376,2.479e-05,0.0,0 STARLINK-4051,1 53273U 22086AH  23227.39881264  .00002479  00000-0  17376-3 0  9994,2 53273  53.2168  71.7839 0000898  76.7385 283.3708 15.08842243 59522,6917.874,95.437,540.36,539.117,0.0
53273.0,STARLINK-4051,PAYLOAD,2023-08-16 15:46:38,15.08790196,0.0001119,53.2164,66.1345,103.5676,256.5441,0.0011948,0.00018752,0.0,0 STARLINK-4051,1 53273U 22086AH  23228.65739476  .00018752  00000-0  11948-2 0  9990,2 53273  53.2164  66.1345 0001119 103.5676 256.5441 15.08790196 59713,6918.033,95.441,540.672,539.123,0.0
53273.0,STARLINK-4051,PAYLOAD,2023-08-16 23:43:32,15.08843584,0.0001093,53.216,64.6467,92.5171,267.5946,9.018e-05,1.148e-05,0.0,0 STARLINK-4051,1 53273U 22086AH  23228.98857116  .00001148  00000-0  90180-4 0  9996,2 53273  53.2160  64.6467 0001093  92.5171 267.5946 15.08843584 59762,6917.869,95.437,540.491,538.978,0.0
53273.0,STARLINK-4051,PAYLOAD,2023-08-17 15:37:24,15.08837608,0.0001791,53.2154,61.671,85.7146,274.405,8.0389e-05,9.91e-06,0.0,0 STARLINK-4051,1 53273U 22086AH  23229.65097791  .00000991  00000-0  80389-4 0  9991,2 53273  53.2154  61.6710 0001791  85.7146 274.4050 15.08837608 59868,6917.888,95.438,540.992,538.514,0.0
53273.0,STARLINK-4051,PAYLOAD,2023-08-18 18:38:57,15.08838081,0.0001208,53.2159,56.6173,88.9615,271.1515,0.000116,1.559e-05,0.0,0 STARLINK-4051,1 53273U 22086AH  23230.77705809  .00001559  00000-0  11600-3 0  9992,2 53273  53.2159  56.6173 0001208  88.9615 271.1515 15.08838081 60036,6917.886,95.438,540.587,538.916,0.0
53273.0,STARLINK-4051,PAYLOAD,2023-08-20 11:58:59,15.0883225,9.98e-05,53.2167,48.8856,94.9528,265.1578,0.00026758,3.972e-05,0.0,0 STARLINK-4051,1 53273U 22086AH  23232.49930362  .00003972  00000-0  26758-3 0  9998,2 53273  53.2167  48.8856 0000998  94.9528 265.1578 15.08832250 60293,6917.904,95.438,540.459,539.079,0.0
53273.0,STARLINK-4051,PAYLOAD,2023-08-20 18:20:31,15.08842427,0.000109,53.2177,47.697,98.5443,261.5673,0.00010952,1.456e-05,0.0,0 STARLINK-4051,1 53273U 22086AH  23232.76425652  .00001456  00000-0  10952-3 0  9993,2 53273  53.2177  47.6970 0001090  98.5443 261.5673 15.08842427 60336,6917.873,95.437,540.492,538.984,0.0
53273.0,STARLINK-4051,PAYLOAD,2023-08-21 07:03:37,15.08833882,0.0001104,53.2179,45.3185,85.1794,274.9325,0.00015763,2.221e-05,0.0,0 STARLINK-4051,1 53273U 22086AH  23233.29418080  .00002221  00000-0  15763-3 0  9995,2 53273  53.2179  45.3185 0001104  85.1794 274.9325 15.08833882 60414,6917.899,95.438,540.528,539.0,0.0
53273.0,STARLINK-4051,PAYLOAD,2023-08-22 11:40:33,15.08835944,0.0001059,53.218,39.9662,80.8205,279.2906,6.27e-05,7.1e-06,0.0,0 STARLINK-4051,1 53273U 22086AH  23234.48650411  .00000710  00000-0  62700-4 0  9998,2 53273  53.2180  39.9662 0001059  80.8205 279.2906 15.08835944 60596,6917.893,95.438,540.49,539.025,0.0
53273.0,STARLINK-4051,PAYLOAD,2023-08-24 19:19:03,15.08842363,0.0001749,53.2177,29.556,114.6598,245.4576,9.5963e-05,1.24e-05,0.0,0 STARLINK-4051,1 53273U 22086AH  23236.80490042  .00001240  00000-0  95963-4 0  9994,2 53273  53.2177  29.5560 0001749 114.6598 245.4576 15.08842363 61111,6917.873,95.437,540.948,538.528,0.0
53273.0,STARLINK-4051,PAYLOAD,2023-08-25 12:48:18,15.0884079,0.000116,53.2177,26.2855,125.031,235.0791,4.5322e-06,-2.16e-06,0.0,0 STARLINK-4051,1 53273U 22086AH  23237.53354312 -.00000216  00000-0  45322-5 0  9992,2 53273  53.2177  26.2855 0001160 125.0310 235.0791 15.08840790 61225,6917.878,95.438,540.545,538.941,0.0
53273.0,STARLINK-4051,PAYLOAD,2023-08-25 19:09:50,15.08849118,0.0001117,53.2184,25.0957,99.7047,260.4071,5.1403e-05,5.31e-06,0.0,0 STARLINK-4051,1 53273U 22086AH  23237.79849778  .00000531  00000-0  51403-4 0  9990,2 53273  53.2184  25.0957 0001117  99.7047 260.4071 15.08849118 61090,6917.853,95.437,540.49,538.945,0.0
53273.0,STARLINK-4051,PAYLOAD,2023-08-26 12:39:05,15.0883571,0.0001125,53.2183,21.8258,100.3329,259.779,3.0002e-05,1.9e-06,0.0,0 STARLINK-4051,1 53273U 22086AH  23238.52714751  .00000190  00000-0  30002-4 0  9997,2 53273  53.2183  21.8258 0001125 100.3329 259.7790 15.08835710 61371,6917.894,95.438,540.537,538.98,0.0
53273.0,STARLINK-4051,PAYLOAD,2023-08-26 17:25:14,15.0884491,0.0001384,53.2181,20.9326,147.9153,212.1924,7.5452e-05,9.13e-06,0.0,0 STARLINK-4051,1 53273U 22086AH  23238.72585741  .00000913  00000-0  75452-4 0  9995,2 53273  53.2181  20.9326 0001384 147.9153 212.1924 15.08844910 61233,6917.865,95.437,540.688,538.773,0.0
53273.0,STARLINK-4051,PAYLOAD,2023-08-27 09:19:06,15.08839496,0.0001148,53.2183,17.9613,90.2403,269.872,1.0252e-05,-1.25e-06,0.0,0 STARLINK-4051,1 53273U 22086AH  23239.38826784 -.00000125  00000-0  10252-4 0  9996,2 53273  53.2183  17.9613 0001148  90.2403 269.8720 15.08839496 61333,6917.882,95.438,540.541,538.953,0.0
53273.0,STARLINK-4051,PAYLOAD,2023-08-27 15:40:38,15.08842698,0.0001087,53.2179,16.7721,97.488,262.6236,3.7324e-05,3.06e-06,0.0,0 STARLINK-4051,1 53273U 22086AH  23239.65322454  .00000306  00000-0  37324-4 0  9990,2 53273  53.2179  16.7721 0001087  97.4880 262.6236 15.08842698 61549,6917.872,95.437,540.489,538.985,0.0
53273.0,STARLINK-4051,PAYLOAD,2023-08-28 15:31:26,15.08839102,0.0001092,53.2186,12.3116,97.7365,262.3751,1.1882e-05,-9.9e-07,0.0,0 STARLINK-4051,1 53273U 22086AH  23240.64682973 -.00000099  00000-0  11882-4 0  9997,2 53273  53.2186  12.3116 0001092  97.7365 262.3751 15.08839102 61527,6917.883,95.438,540.504,538.993,0.0
53273.0,STARLINK-4051,PAYLOAD,2023-08-29 15:22:12,15.08842833,0.0001164,53.2185,7.8506,85.0747,275.0378,0.000106,1.4e-05,0.0,0 STARLINK-4051,1 53273U 22086AH  23241.64042631  .00001400  00000-0  10600-3 0  9991,2 53273  53.2185   7.8506 0001164  85.0747 275.0378 15.08842833 61848,6917.872,95.437,540.542,538.931,0.0
53273.0,STARLINK-4051,PAYLOAD,2023-08-30 08:51:27,15.08835205,0.0001206,53.2186,4.5792,86.4638,273.6492,7.6614e-05,9.32e-06,0.0,0 STARLINK-4051,1 53273U 22086AH  23242.36907240  .00000932  00000-0  76614-4 0  9994,2 53273  53.2186   4.5792 0001206  86.4638 273.6492 15.08835205 61780,6917.895,95.438,540.594,538.926,0.0
53273.0,STARLINK-4051,PAYLOAD,2023-08-30 15:12:59,15.08841606,0.0001202,53.2189,3.3913,83.307,276.8059,0.00013516,1.864e-05,0.0,0 STARLINK-4051,1 53273U 22086AH  23242.63402688  .00001864  00000-0  13516-3 0  9996,2 53273  53.2189   3.3913 0001202  83.3070 276.8059 15.08841606 61828,6917.875,95.437,540.572,538.909,0.0
53273.0,STARLINK-4051,PAYLOAD,2023-08-31 10:17:38,15.08835716,0.0001375,53.2186,359.8217,80.8065,279.3083,-4.4603e-05,-9.98e-06,0.0,0 STARLINK-4051,1 53273U 22086AH  23243.42891646 -.00000998  00000-0 -44603-4 0  9991,2 53273  53.2186 359.8217 0001375  80.8065 279.3083 15.08835716 61941,6917.893,95.438,540.71,538.807,0.0
53273.0,STARLINK-4051,PAYLOAD,2023-09-01 00:36:06,15.08840896,0.0001361,53.2184,357.1459,84.6787,275.436,3.7387e-05,3.07e-06,0.0,0 STARLINK-4051,1 53273U 22086AH  23244.02507118  .00000307  00000-0  37387-4 0  9999,2 53273  53.2184 357.1459 0001361  84.6787 275.4360 15.08840896 62037,6917.878,95.437,540.684,538.801,0.0
53273.0,STARLINK-4051,PAYLOAD,2023-09-01 10:08:24,15.08840691,0.0001345,53.217,355.3645,96.116,263.9986,5.8799e-05,6.48e-06,0.0,0 STARLINK-4051,1 53273U 22086AH  23244.42251148  .00000648  00000-0  58799-4 0  9990,2 53273  53.2170 355.3645 0001345  96.1160 263.9986 15.08840691 62268,6917.878,95.438,540.674,538.813,0.0
53273.0,STARLINK-4051,PAYLOAD,2023-09-01 16:29:56,15.08852269,9.97e-05,53.2187,354.1726,96.1265,263.9841,0.00010495,1.383e-05,0.0,0 STARLINK-4051,1 53273U 22086AH  23244.68746104  .00001383  00000-0  10495-3 0  9996,2 53273  53.2187 354.1726 0000997  96.1265 263.9841 15.08852269 62131,6917.843,95.437,540.398,539.018,0.0
53273.0,STARLINK-4051,PAYLOAD,2023-09-02 00:26:53,15.08832466,0.0001445,53.2185,352.6848,86.6714,273.4443,0.0003046,4.562e-05,0.0,0 STARLINK-4051,1 53273U 22086AH  23245.01867118  .00004562  00000-0  30460-3 0  9999,2 53273  53.2185 352.6848 0001445  86.6714 273.4443 15.08832466 62185,6917.903,95.438,540.768,538.769,0.0
53273.0,STARLINK-4051,PAYLOAD,2023-09-02 13:09:58,15.08837541,0.0001315,53.2177,350.3076,82.9304,277.1838,6.129e-05,6.88e-06,0.0,0 STARLINK-4051,1 53273U 22086AH  23245.54859378  .00000688  00000-0  61290-4 0  9997,2 53273  53.2177 350.3076 0001315  82.9304 277.1838 15.08837541 62430,6917.888,95.438,540.663,538.843,0.0
53273.0,STARLINK-4051,PAYLOAD,2023-09-02 14:45:21,15.08841801,0.0001411,53.2183,350.0087,81.4938,278.6214,9.532e-05,1.229e-05,0.0,0 STARLINK-4051,1 53273U 22086AH  23245.61483070  .00001229  00000-0  95320-4 0  9990,2 53273  53.2183 350.0087 0001411  81.4938 278.6214 15.08841801 62449,6917.875,95.437,540.716,538.764,0.0
53273.0,STARLINK-4051,PAYLOAD,2023-09-03 00:17:39,15.08847367,0.0001273,53.2177,348.2265,83.1184,276.9953,0.00013187,1.812e-05,0.0,0 STARLINK-4051,1 53273U 22086AH  23246.01226529  .00001812  00000-0  13187-3 0  9997,2 53273  53.2177 348.2265 0001273  83.1184 276.9953 15.08847367 62339,6917.858,95.437,540.604,538.842,0.0
53273.0,STARLINK-4051,PAYLOAD,2023-09-03 13:00:44,15.08851775,0.0001313,53.2183,345.8456,86.3484,273.7658,0.00016243,2.299e-05,0.0,0 STARLINK-4051,1 53273U 22086AH  23246.54218077  .00002299  00000-0  16243-3 0  9990,2 53273  53.2183 345.8456 0001313  86.3484 273.7658 15.08851775 62586,6917.844,95.437,540.618,538.801,0.0
53273.0,STARLINK-4051,PAYLOAD,2023-09-04 00:08:26,15.08845661,0.0001343,53.2174,343.7651,80.6575,279.4569,8.7639e-05,1.107e-05,0.0,0 STARLINK-4051,1 53273U 22086AH  23247.00586419  .00001107  00000-0  87639-4 0  9995,2 53273  53.2174 343.7651 0001343  80.6575 279.4569 15.08845661 62481,6917.863,95.437,540.657,538.799,0.0
